ORBCOMM FM20            
1 25416U 98046D   25283.49991316  .00001220  00000+0  45108-3 0  9992
2 25416  44.9957 355.0903 0002358 217.4070 142.6614 14.37462630420851
ORBCOMM FM16            
1 25417U 98046E   25283.49527734  .00001408  00000+0  49500-3 0  9990
2 25417  44.9951 345.1376 0005225 186.5510 173.5271 14.39256848420868
ORBCOMM FM15            
1 25418U 98046F   25283.50023723  .00001460  00000+0  51559-3 0  9997
2 25418  44.9984 350.6067 0004996 187.1195 172.9583 14.38890868420856
ORBCOMM FM14            
1 25419U 98046G   25283.48826314  .00001544  00000+0  53822-3 0  9990
2 25419  44.9972 348.5606 0003781 192.4802 167.5953 14.39282869420829
ORBCOMM FM13            
1 25420U 98046H   25283.49607198  .00001353  00000+0  49019-3 0  9991
2 25420  44.9990 357.6441 0005159 161.8835 198.2198 14.37965826419836
ORBCOMM FM21            
1 25475U 98053A   25283.52975458  .00001111  00000+0  41397-3 0  9993
2 25475  45.0078  83.1826 0001865 113.5591 246.5453 14.37593186413848
ORBCOMM FM22            
1 25476U 98053B   25283.48104177  .00001588  00000+0  55882-3 0  9993
2 25476  45.0066  77.3111 0003415 103.4851 256.6378 14.38709834413879
ORBCOMM FM23            
1 25477U 98053C   25283.51487979  .00001284  00000+0  46886-3 0  9999
2 25477  45.0077  85.2038 0002730  98.3882 261.7275 14.37807144413991
